start=new Date('2023-05-07T00:00:00.000Z').valueOf();
sats=[{"CLASSIFICATION_TYPE":"U","EPHEMERIS_TYPE":"0","OBJECT_TYPE":"PAYLOAD","OBJECT_NAME":"STARLINK-5779","MEAN_ELEMENT_THEORY":"SGP4","MEAN_MOTION":"15.55651420","EPOCH":"2023-05-06T16:00:00.999936","PERIOD":"92.566","SITE":"AFETR","DECAY_DATE":null,"RA_OF_ASC_NODE":"295.1388","RCS_SIZE":"LARGE","APOAPSIS":"401.121","MEAN_ANOMALY":"251.2061","OBJECT_ID":"2023-042AU","LAUNCH_DATE":"2023-03-24","SEMIMAJOR_AXIS":"6778.397","BSTAR":"-0.01435900000000","REF_FRAME":"TEME","REV_AT_EPOCH":"130","TLE_LINE1":"1 56028U 23042AU  23126.66667824 -.00918765  00000-0 -14359-1 0  9992","TIME_SYSTEM":"UTC","FILE":"3902298","MEAN_MOTION_DDOT":"0.0000000000000","ARG_OF_PERICENTER":"270.9631","PERIAPSIS":"399.402","TLE_LINE2":"2 56028  42.9988 295.1388 0001268 270.9631 251.2061 15.55651420  1309","CENTER_NAME":"EARTH","ELEMENT_SET_NO":"999","GP_ID":"231355017","COUNTRY_CODE":"US","MEAN_MOTION_DOT":"-0.00918765","ECCENTRICITY":"0.00012680","NORAD_CAT_ID":"56028","INCLINATION":"42.9988"},{"REV_AT_EPOCH":"130","REF_FRAME":"TEME","TIME_SYSTEM":"UTC","TLE_LINE1":"1 56029U 23042AV  23126.66667824 -.00918910  00000-0 -14371-1 0  9999","FILE":"3902298","MEAN_MOTION_DDOT":"0.0000000000000","PERIAPSIS":"399.450","ARG_OF_PERICENTER":"275.2068","TLE_LINE2":"2 56029  42.9992 295.1440 0001274 275.2068 244.6557 15.55633643  1306","CENTER_NAME":"EARTH","ELEMENT_SET_NO":"999","GP_ID":"231354273","COUNTRY_CODE":"US","MEAN_MOTION_DOT":"-0.00918910","INCLINATION":"42.9992","ECCENTRICITY":"0.00012740","NORAD_CAT_ID":"56029","CLASSIFICATION_TYPE":"U","OBJECT_TYPE":"PAYLOAD","EPHEMERIS_TYPE":"0","EPOCH":"2023-05-06T16:00:00.999936","OBJECT_NAME":"STARLINK-5774","MEAN_MOTION":"15.55633643","MEAN_ELEMENT_THEORY":"SGP4","SITE":"AFETR","PERIOD":"92.567","DECAY_DATE":null,"APOAPSIS":"401.177","RCS_SIZE":"MEDIUM","RA_OF_ASC_NODE":"295.1440","MEAN_ANOMALY":"244.6557","OBJECT_ID":"2023-042AV","SEMIMAJOR_AXIS":"6778.448","LAUNCH_DATE":"2023-03-24","BSTAR":"-0.01437100000000"},{"TLE_LINE2":"2 56030  42.9990 295.1370 0001250 269.2300 253.7100 15.55653392  1302","CENTER_NAME":"EARTH","ARG_OF_PERICENTER":"269.2300","PERIAPSIS":"399.409","FILE":"3902298","MEAN_MOTION_DDOT":"0.0000000000000","REF_FRAME":"TEME","REV_AT_EPOCH":"130","TLE_LINE1":"1 56030U 23042AW  23126.66667824 -.00912829  00000-0 -14256-1 0  9996","TIME_SYSTEM":"UTC","MEAN_MOTION_DOT":"-0.00912829","NORAD_CAT_ID":"56030","ECCENTRICITY":"0.00012500","INCLINATION":"42.9990","GP_ID":"231354523","COUNTRY_CODE":"US","ELEMENT_SET_NO":"999","SITE":"AFETR","PERIOD":"92.566","OBJECT_NAME":"STARLINK-5781","MEAN_MOTION":"15.55653392","MEAN_ELEMENT_THEORY":"SGP4","EPOCH":"2023-05-06T16:00:00.999936","CLASSIFICATION_TYPE":"U","EPHEMERIS_TYPE":"0","OBJECT_TYPE":"PAYLOAD","SEMIMAJOR_AXIS":"6778.391","LAUNCH_DATE":"2023-03-24","BSTAR":"-0.01425600000000","MEAN_ANOMALY":"253.7100","OBJECT_ID":"2023-042AW","DECAY_DATE":null,"RCS_SIZE":"LARGE","RA_OF_ASC_NODE":"295.1370","APOAPSIS":"401.103"},{"EPOCH":"2023-05-06T16:00:00.999936","MEAN_ELEMENT_THEORY":"SGP4","OBJECT_NAME":"STARLINK-5785","MEAN_MOTION":"15.55645231","CLASSIFICATION_TYPE":"U","OBJECT_TYPE":"PAYLOAD","EPHEMERIS_TYPE":"0","SITE":"AFETR","PERIOD":"92.566","DECAY_DATE":null,"APOAPSIS":"401.117","RCS_SIZE":"LARGE","RA_OF_ASC_NODE":"295.1401","LAUNCH_DATE":"2023-03-24","SEMIMAJOR_AXIS":"6778.415","BSTAR":"-0.01436700000000","MEAN_ANOMALY":"251.5065","OBJECT_ID":"2023-042AX","FILE":"3902298","MEAN_MOTION_DDOT":"0.0000000000000","REV_AT_EPOCH":"130","REF_FRAME":"TEME","TIME_SYSTEM":"UTC","TLE_LINE1":"1 56031U 23042AX  23126.66667824 -.00919029  00000-0 -14367-1 0  9999","TLE_LINE2":"2 56031  42.9991 295.1401 0001236 269.8943 251.5065 15.55645231  1301","CENTER_NAME":"EARTH","ARG_OF_PERICENTER":"269.8943","PERIAPSIS":"399.442","GP_ID":"231355275","COUNTRY_CODE":"US","ELEMENT_SET_NO":"999","MEAN_MOTION_DOT":"-0.00919029","INCLINATION":"42.9991","NORAD_CAT_ID":"56031","ECCENTRICITY":"0.00012360"},{"OBJECT_TYPE":"PAYLOAD","EPHEMERIS_TYPE":"0","CLASSIFICATION_TYPE":"U","EPOCH":"2023-05-06T16:00:00.999936","MEAN_MOTION":"15.55671963","MEAN_ELEMENT_THEORY":"SGP4","OBJECT_NAME":"STARLINK-5786","SITE":"AFETR","PERIOD":"92.565","APOAPSIS":"401.054","RCS_SIZE":"LARGE","RA_OF_ASC_NODE":"295.1311","DECAY_DATE":null,"OBJECT_ID":"2023-042AY","MEAN_ANOMALY":"246.7216","BSTAR":"-0.01427000000000","SEMIMAJOR_AXIS":"6778.337","LAUNCH_DATE":"2023-03-24","TIME_SYSTEM":"UTC","TLE_LINE1":"1 56032U 23042AY  23126.66667824 -.00914221  00000-0 -14270-1 0  9992","REV_AT_EPOCH":"130","REF_FRAME":"TEME","MEAN_MOTION_DDOT":"0.0000000000000","FILE":"3902298","PERIAPSIS":"399.350","ARG_OF_PERICENTER":"278.5242","TLE_LINE2":"2 56032  42.9987 295.1311 0001257 278.5242 246.7216 15.55671963  1304","CENTER_NAME":"EARTH","ELEMENT_SET_NO":"999","COUNTRY_CODE":"US","GP_ID":"231355518","INCLINATION":"42.9987","ECCENTRICITY":"0.00012570","NORAD_CAT_ID":"56032","MEAN_MOTION_DOT":"-0.00914221"},{"DECAY_DATE":null,"RA_OF_ASC_NODE":"295.1327","RCS_SIZE":"LARGE","APOAPSIS":"401.068","LAUNCH_DATE":"2023-03-24","SEMIMAJOR_AXIS":"6778.356","BSTAR":"-0.01424700000000","MEAN_ANOMALY":"253.7992","OBJECT_ID":"2023-042AZ","OBJECT_NAME":"STARLINK-5784","MEAN_ELEMENT_THEORY":"SGP4","MEAN_MOTION":"15.55665261","EPOCH":"2023-05-06T16:00:00.999936","CLASSIFICATION_TYPE":"U","EPHEMERIS_TYPE":"0","OBJECT_TYPE":"PAYLOAD","PERIOD":"92.565","SITE":"AFETR","GP_ID":"231353773","COUNTRY_CODE":"US","ELEMENT_SET_NO":"999","MEAN_MOTION_DOT":"-0.00912672","ECCENTRICITY":"0.00012490","NORAD_CAT_ID":"56033","INCLINATION":"42.9987","FILE":"3902298","MEAN_MOTION_DDOT":"0.0000000000000","REF_FRAME":"TEME","REV_AT_EPOCH":"130","TLE_LINE1":"1 56033U 23042AZ  23126.66667824 -.00912672  00000-0 -14247-1 0  9995","TIME_SYSTEM":"UTC","TLE_LINE2":"2 56033  42.9987 295.1327 0001249 270.6783 253.7992 15.55665261  1309","CENTER_NAME":"EARTH","ARG_OF_PERICENTER":"270.6783","PERIAPSIS":"399.375"},{"LAUNCH_DATE":"2023-03-24","SEMIMAJOR_AXIS":"6778.316","BSTAR":"-0.01431200000000","MEAN_ANOMALY":"247.7045","OBJECT_ID":"2023-042BA","DECAY_DATE":null,"RCS_SIZE":"LARGE","RA_OF_ASC_NODE":"295.1294","APOAPSIS":"401.023","PERIOD":"92.564","SITE":"AFETR","MEAN_MOTION":"15.55679251","OBJECT_NAME":"STARLINK-5782","MEAN_ELEMENT_THEORY":"SGP4","EPOCH":"2023-05-06T16:00:00.999936","CLASSIFICATION_TYPE":"U","EPHEMERIS_TYPE":"0","OBJECT_TYPE":"PAYLOAD","MEAN_MOTION_DOT":"-0.00916890","NORAD_CAT_ID":"56034","ECCENTRICITY":"0.00012420","INCLINATION":"42.9988","GP_ID":"231354023","COUNTRY_CODE":"US","ELEMENT_SET_NO":"999","TLE_LINE2":"2 56034  42.9988 295.1294 0001242 278.3094 247.7045 15.55679251  1303","CENTER_NAME":"EARTH","ARG_OF_PERICENTER":"278.3094","PERIAPSIS":"399.339","FILE":"3902298","MEAN_MOTION_DDOT":"0.0000000000000","REF_FRAME":"TEME","REV_AT_EPOCH":"130","TLE_LINE1":"1 56034U 23042BA  23126.66667824 -.00916890  00000-0 -14312-1 0  9995","TIME_SYSTEM":"UTC"},{"MEAN_MOTION_DDOT":"0.0000000000000","FILE":"3902298","TIME_SYSTEM":"UTC","TLE_LINE1":"1 56035U 23042BB  23126.66667824 -.00912664  00000-0 -14250-1 0  9992","REV_AT_EPOCH":"130","REF_FRAME":"TEME","CENTER_NAME":"EARTH","TLE_LINE2":"2 56035  42.9997 295.1347 0001244 269.9420 253.7667 15.55659415  1301","PERIAPSIS":"399.395","ARG_OF_PERICENTER":"269.9420","COUNTRY_CODE":"US","GP_ID":"231354775","ELEMENT_SET_NO":"999","INCLINATION":"42.9997","NORAD_CAT_ID":"56035","ECCENTRICITY":"0.00012440","MEAN_MOTION_DOT":"-0.00912664","EPOCH":"2023-05-06T16:00:00.999936","MEAN_ELEMENT_THEORY":"SGP4","MEAN_MOTION":"15.55659415","OBJECT_NAME":"STARLINK-5792","OBJECT_TYPE":"PAYLOAD","EPHEMERIS_TYPE":"0","CLASSIFICATION_TYPE":"U","SITE":"AFETR","PERIOD":"92.565","APOAPSIS":"401.082","RA_OF_ASC_NODE":"295.1347","RCS_SIZE":"LARGE","DECAY_DATE":null,"BSTAR":"-0.01425000000000","LAUNCH_DATE":"2023-03-24","SEMIMAJOR_AXIS":"6778.373","OBJECT_ID":"2023-042BB","MEAN_ANOMALY":"253.7667"},{"COUNTRY_CODE":"US","GP_ID":"231355018","ELEMENT_SET_NO":"999","INCLINATION":"42.9991","NORAD_CAT_ID":"56036","ECCENTRICITY":"0.00012570","MEAN_MOTION_DOT":"-0.00914076","MEAN_MOTION_DDOT":"0.0000000000000","FILE":"3902298","TIME_SYSTEM":"UTC","TLE_LINE1":"1 56036U 23042BC  23126.66667824 -.00914076  00000-0 -14258-1 0  9990","REV_AT_EPOCH":"130","REF_FRAME":"TEME","TLE_LINE2":"2 56036  42.9991 295.1257 0001257 278.5519 248.9992 15.55689847  1304","CENTER_NAME":"EARTH","ARG_OF_PERICENTER":"278.5519","PERIAPSIS":"399.298","APOAPSIS":"401.002","RCS_SIZE":"LARGE","RA_OF_ASC_NODE":"295.1257","DECAY_DATE":null,"BSTAR":"-0.01425800000000","SEMIMAJOR_AXIS":"6778.285","LAUNCH_DATE":"2023-03-24","OBJECT_ID":"2023-042BC","MEAN_ANOMALY":"248.9992","EPOCH":"2023-05-06T16:00:00.999936","MEAN_MOTION":"15.55689847","MEAN_ELEMENT_THEORY":"SGP4","OBJECT_NAME":"STARLINK-5790","OBJECT_TYPE":"PAYLOAD","EPHEMERIS_TYPE":"0","CLASSIFICATION_TYPE":"U","PERIOD":"92.563","SITE":"AFETR"},{"SEMIMAJOR_AXIS":"6733.274","LAUNCH_DATE":"2023-03-24","BSTAR":"0.00068173000000","MEAN_ANOMALY":"199.8025","OBJECT_ID":"2023-042BD","DECAY_DATE":null,"APOAPSIS":"356.773","RCS_SIZE":"LARGE","RA_OF_ASC_NODE":"305.6228","PERIOD":"91.643","SITE":"AFETR","EPOCH":"2023-05-04T20:00:01.000224","MEAN_MOTION":"15.71315237","MEAN_ELEMENT_THEORY":"SGP4","OBJECT_NAME":"STARLINK-5758","CLASSIFICATION_TYPE":"U","OBJECT_TYPE":"PAYLOAD","EPHEMERIS_TYPE":"0","MEAN_MOTION_DOT":"0.00089766","INCLINATION":"42.9995","NORAD_CAT_ID":"56037","ECCENTRICITY":"0.00024270","GP_ID":"231274395","COUNTRY_CODE":"US","ELEMENT_SET_NO":"999","TLE_LINE2":"2 56037  42.9995 305.6228 0002427 251.9849 199.8025 15.71315237  1303","CENTER_NAME":"EARTH","PERIAPSIS":"353.505","ARG_OF_PERICENTER":"251.9849","FILE":"3901186","MEAN_MOTION_DDOT":"0.0000000000000","REV_AT_EPOCH":"130","REF_FRAME":"TEME","TIME_SYSTEM":"UTC","TLE_LINE1":"1 56037U 23042BD  23124.83334491  .00089766  00000-0  68173-3 0  9993"}];
